[{"OBJECT_NAME":"ONEWEB-0603","OBJECT_ID":"2022-166AB","EPOCH":"2026-02-08T02:14:41.838720","MEAN_MOTION":13.21825207,"ECCENTRICITY":0.00015476,"INCLINATION":87.9196,"RA_OF_ASC_NODE":269.6996,"ARG_OF_PERICENTER":77.4196,"MEAN_ANOMALY":282.7111,"EPHEMERIS_TYPE":0,"CLASSIFICATION_TYPE":"U","NORAD_CAT_ID":54667,"ELEMENT_SET_NO":999,"REV_AT_EPOCH":15442,"BSTAR":-5.3258505e-5,"MEAN_MOTION_DOT":-9.0e-8,"MEAN_MOTION_DDOT":0},{"OBJECT_NAME":"ONEWEB-0604","OBJECT_ID":"2022-166AC","EPOCH":"2026-02-08T00:09:06.530976","MEAN_MOTION":13.21825249,"ECCENTRICITY":0.0001538,"INCLINATION":87.9191,"RA_OF_ASC_NODE":269.733,"ARG_OF_PERICENTER":89.186,"MEAN_ANOMALY":270.945,"EPHEMERIS_TYPE":0,"CLASSIFICATION_TYPE":"U","NORAD_CAT_ID":54668,"ELEMENT_SET_NO":999,"REV_AT_EPOCH":15437,"BSTAR":0.00010336779,"MEAN_MOTION_DOT":5.6e-7,"MEAN_MOTION_DDOT":0},{"OBJECT_NAME":"ONEWEB-0605","OBJECT_ID":"2022-166AD","EPOCH":"2026-02-08T01:48:38.959488","MEAN_MOTION":13.21825741,"ECCENTRICITY":0.00020227,"INCLINATION":87.9182,"RA_OF_ASC_NODE":269.7456,"ARG_OF_PERICENTER":71.8164,"MEAN_ANOMALY":288.319,"EPHEMERIS_TYPE":0,"CLASSIFICATION_TYPE":"U","NORAD_CAT_ID":54669,"ELEMENT_SET_NO":999,"REV_AT_EPOCH":15445,"BSTAR":0.00010290874,"MEAN_MOTION_DOT":5.6e-7,"MEAN_MOTION_DDOT":0},{"OBJECT_NAME":"ONEWEB-0606","OBJECT_ID":"2022-166AE","EPOCH":"2026-02-08T04:08:26.143584","MEAN_MOTION":13.21824197,"ECCENTRICITY":0.00016262,"INCLINATION":87.9187,"RA_OF_ASC_NODE":269.7386,"ARG_OF_PERICENTER":88.8209,"MEAN_ANOMALY":271.3112,"EPHEMERIS_TYPE":0,"CLASSIFICATION_TYPE":"U","NORAD_CAT_ID":54670,"ELEMENT_SET_NO":999,"REV_AT_EPOCH":15452,"BSTAR":7.768346e-6,"MEAN_MOTION_DOT":1.6e-7,"MEAN_MOTION_DDOT":0},{"OBJECT_NAME":"ONEWEB-0607","OBJECT_ID":"2022-166AF","EPOCH":"2026-02-08T01:32:02.568768","MEAN_MOTION":13.21823706,"ECCENTRICITY":0.00015311,"INCLINATION":87.9188,"RA_OF_ASC_NODE":269.7233,"ARG_OF_PERICENTER":79.1968,"MEAN_ANOMALY":280.9338,"EPHEMERIS_TYPE":0,"CLASSIFICATION_TYPE":"U","NORAD_CAT_ID":54671,"ELEMENT_SET_NO":999,"REV_AT_EPOCH":15448,"BSTAR":0.00031593946,"MEAN_MOTION_DOT":1.43e-6,"MEAN_MOTION_DDOT":0},{"OBJECT_NAME":"ONEWEB-0608","OBJECT_ID":"2022-166AG","EPOCH":"2026-02-08T01:41:32.320608","MEAN_MOTION":13.21825137,"ECCENTRICITY":0.00018265,"INCLINATION":87.9194,"RA_OF_ASC_NODE":269.7142,"ARG_OF_PERICENTER":70.4459,"MEAN_ANOMALY":289.6872,"EPHEMERIS_TYPE":0,"CLASSIFICATION_TYPE":"U","NORAD_CAT_ID":54672,"ELEMENT_SET_NO":999,"REV_AT_EPOCH":15449,"BSTAR":4.5466014e-5,"MEAN_MOTION_DOT":3.2e-7,"MEAN_MOTION_DDOT":0},{"OBJECT_NAME":"ONEWEB-0610","OBJECT_ID":"2022-166AH","EPOCH":"2026-02-08T03:02:06.252000","MEAN_MOTION":13.21826021,"ECCENTRICITY":0.00018253,"INCLINATION":87.9186,"RA_OF_ASC_NODE":269.7304,"ARG_OF_PERICENTER":65.4752,"MEAN_ANOMALY":294.6572,"EPHEMERIS_TYPE":0,"CLASSIFICATION_TYPE":"U","NORAD_CAT_ID":54673,"ELEMENT_SET_NO":999,"REV_AT_EPOCH":15440,"BSTAR":0.00013182286,"MEAN_MOTION_DOT":6.7e-7,"MEAN_MOTION_DDOT":0},{"OBJECT_NAME":"ONEWEB-0611","OBJECT_ID":"2022-166AJ","EPOCH":"2026-02-08T04:41:37.047552","MEAN_MOTION":13.21824664,"ECCENTRICITY":0.00014815,"INCLINATION":87.9188,"RA_OF_ASC_NODE":269.7131,"ARG_OF_PERICENTER":89.9342,"MEAN_ANOMALY":270.1962,"EPHEMERIS_TYPE":0,"CLASSIFICATION_TYPE":"U","NORAD_CAT_ID":54674,"ELEMENT_SET_NO":999,"REV_AT_EPOCH":15440,"BSTAR":0.0001153174,"MEAN_MOTION_DOT":6.1e-7,"MEAN_MOTION_DDOT":0},{"OBJECT_NAME":"ONEWEB-0612","OBJECT_ID":"2022-166AK","EPOCH":"2026-02-08T01:22:35.299200","MEAN_MOTION":13.21827583,"ECCENTRICITY":0.00015769,"INCLINATION":87.9195,"RA_OF_ASC_NODE":269.7219,"ARG_OF_PERICENTER":78.1011,"MEAN_ANOMALY":282.0299,"EPHEMERIS_TYPE":0,"CLASSIFICATION_TYPE":"U","NORAD_CAT_ID":54675,"ELEMENT_SET_NO":999,"REV_AT_EPOCH":15437,"BSTAR":0.00010451302,"MEAN_MOTION_DOT":5.6e-7,"MEAN_MOTION_DDOT":0},{"OBJECT_NAME":"ONEWEB-0615","OBJECT_ID":"2022-166AL","EPOCH":"2026-02-08T04:32:07.719936","MEAN_MOTION":13.21824608,"ECCENTRICITY":0.00015462,"INCLINATION":87.9187,"RA_OF_ASC_NODE":269.7215,"ARG_OF_PERICENTER":81.3591,"MEAN_ANOMALY":278.7718,"EPHEMERIS_TYPE":0,"CLASSIFICATION_TYPE":"U","NORAD_CAT_ID":54676,"ELEMENT_SET_NO":999,"REV_AT_EPOCH":15440,"BSTAR":0.00032462264,"MEAN_MOTION_DOT":1.47e-6,"MEAN_MOTION_DDOT":0},{"OBJECT_NAME":"ONEWEB-0655","OBJECT_ID":"2022-166AM","EPOCH":"2026-02-08T02:07:34.983840","MEAN_MOTION":13.21824003,"ECCENTRICITY":0.00013432,"INCLINATION":87.9188,"RA_OF_ASC_NODE":269.7441,"ARG_OF_PERICENTER":76.1106,"MEAN_ANOMALY":284.0177,"EPHEMERIS_TYPE":0,"CLASSIFICATION_TYPE":"U","NORAD_CAT_ID":54677,"ELEMENT_SET_NO":999,"REV_AT_EPOCH":15438,"BSTAR":-6.1622896e-5,"MEAN_MOTION_DOT":-1.2e-7,"MEAN_MOTION_DDOT":0},{"OBJECT_NAME":"ONEWEB-0659","OBJECT_ID":"2022-166AN","EPOCH":"2026-02-07T10:10:39.788832","MEAN_MOTION":13.21577508,"ECCENTRICITY":0.00035138,"INCLINATION":87.9202,"RA_OF_ASC_NODE":269.8798,"ARG_OF_PERICENTER":66.821,"MEAN_ANOMALY":293.3293,"EPHEMERIS_TYPE":0,"CLASSIFICATION_TYPE":"U","NORAD_CAT_ID":54678,"ELEMENT_SET_NO":999,"REV_AT_EPOCH":15438,"BSTAR":-0.076210602,"MEAN_MOTION_DOT":-0.00031239,"MEAN_MOTION_DDOT":0},{"OBJECT_NAME":"ONEWEB-0685","OBJECT_ID":"2022-166AP","EPOCH":"2026-02-08T04:20:24.767808","MEAN_MOTION":13.21808874,"ECCENTRICITY":9.782e-5,"INCLINATION":87.9197,"RA_OF_ASC_NODE":269.7207,"ARG_OF_PERICENTER":80.0915,"MEAN_ANOMALY":280.0329,"EPHEMERIS_TYPE":0,"CLASSIFICATION_TYPE":"U","NORAD_CAT_ID":54679,"ELEMENT_SET_NO":999,"REV_AT_EPOCH":15437,"BSTAR":-0.00048774296,"MEAN_MOTION_DOT":-1.88e-6,"MEAN_MOTION_DDOT":0},{"OBJECT_NAME":"ONEWEB-0712","OBJECT_ID":"2022-166AQ","EPOCH":"2026-02-08T02:14:09.545856","MEAN_MOTION":13.16595218,"ECCENTRICITY":0.00010046,"INCLINATION":87.9008,"RA_OF_ASC_NODE":254.4682,"ARG_OF_PERICENTER":82.5969,"MEAN_ANOMALY":277.5276,"EPHEMERIS_TYPE":0,"CLASSIFICATION_TYPE":"U","NORAD_CAT_ID":54680,"ELEMENT_SET_NO":999,"REV_AT_EPOCH":15507,"BSTAR":2.5709322e-5,"MEAN_MOTION_DOT":2.3e-7,"MEAN_MOTION_DDOT":0},{"OBJECT_NAME":"ONEWEB-0714","OBJECT_ID":"2022-166AR","EPOCH":"2026-02-08T04:29:45.928032","MEAN_MOTION":13.21825802,"ECCENTRICITY":0.00014265,"INCLINATION":87.9185,"RA_OF_ASC_NODE":269.7148,"ARG_OF_PERICENTER":78.4716,"MEAN_ANOMALY":281.6578,"EPHEMERIS_TYPE":0,"CLASSIFICATION_TYPE":"U","NORAD_CAT_ID":54681,"ELEMENT_SET_NO":999,"REV_AT_EPOCH":15449,"BSTAR":0.00034337939,"MEAN_MOTION_DOT":1.55e-6,"MEAN_MOTION_DDOT":0},{"OBJECT_NAME":"ONEWEB-0532","OBJECT_ID":"2023-004A","EPOCH":"2026-02-08T00:25:36.926400","MEAN_MOTION":13.17647571,"ECCENTRICITY":0.00022507,"INCLINATION":87.9109,"RA_OF_ASC_NODE":31.5222,"ARG_OF_PERICENTER":85.3081,"MEAN_ANOMALY":274.8308,"EPHEMERIS_TYPE":0,"CLASSIFICATION_TYPE":"U","NORAD_CAT_ID":55140,"ELEMENT_SET_NO":999,"REV_AT_EPOCH":15057,"BSTAR":-1.5111853e-5,"MEAN_MOTION_DOT":7.0e-8,"MEAN_MOTION_DDOT":0}]
