ONEWEB-0603             
1 54667U 22166AB  26039.09353980 -.00000009  00000+0 -53259-4 0  9990
2 54667  87.9196 269.6996 0001547  77.4196 282.7111 13.21825207154427
ONEWEB-0604             
1 54668U 22166AC  26039.00632559  .00000056  00000+0  10337-3 0  9993
2 54668  87.9191 269.7330 0001538  89.1860 270.9450 13.21825249154379
ONEWEB-0605             
1 54669U 22166AD  26039.07545092  .00000056  00000+0  10291-3 0  9995
2 54669  87.9182 269.7456 0002022  71.8164 288.3190 13.21825741154453
ONEWEB-0606             
1 54670U 22166AE  26039.17252481  .00000016  00000+0  77683-5 0  9991
2 54670  87.9187 269.7386 0001626  88.8209 271.3112 13.21824197154527
ONEWEB-0607             
1 54671U 22166AF  26039.06391862  .00000143  00000+0  31594-3 0  9997
2 54671  87.9188 269.7233 0001531  79.1968 280.9338 13.21823706154486
ONEWEB-0608             
1 54672U 22166AG  26039.07051297  .00000032  00000+0  45466-4 0  9995
2 54672  87.9194 269.7142 0001826  70.4459 289.6872 13.21825137154499
ONEWEB-0610             
1 54673U 22166AH  26039.12646125  .00000067  00000+0  13182-3 0  9999
2 54673  87.9186 269.7304 0001825  65.4752 294.6572 13.21826021154407
ONEWEB-0611             
1 54674U 22166AJ  26039.19556768  .00000061  00000+0  11532-3 0  9991
2 54674  87.9188 269.7131 0001481  89.9342 270.1962 13.21824664154405
ONEWEB-0612             
1 54675U 22166AK  26039.05735300  .00000056  00000+0  10451-3 0  9991
2 54675  87.9195 269.7219 0001576  78.1011 282.0299 13.21827583154373
ONEWEB-0615             
1 54676U 22166AL  26039.18897824  .00000147  00000+0  32462-3 0  9993
2 54676  87.9187 269.7215 0001546  81.3591 278.7718 13.21824608154404
ONEWEB-0655             
1 54677U 22166AM  26039.08859935 -.00000012  00000+0 -61623-4 0  9999
2 54677  87.9188 269.7441 0001343  76.1106 284.0177 13.21824003154381
ONEWEB-0659             
1 54678U 22166AN  26038.42407163 -.00031239  00000+0 -76211-1 0  9990
2 54678  87.9202 269.8798 0003513  66.8210 293.3293 13.21577508154385
ONEWEB-0685             
1 54679U 22166AP  26039.18084222 -.00000188  00000+0 -48774-3 0  9996
2 54679  87.9197 269.7207 0000978  80.0915 280.0329 13.21808874154370
ONEWEB-0712             
1 54680U 22166AQ  26039.09316604  .00000023  00000+0  25709-4 0  9990
2 54680  87.9008 254.4682 0001004  82.5969 277.5276 13.16595218155077
ONEWEB-0714             
1 54681U 22166AR  26039.18733713  .00000155  00000+0  34338-3 0  9998
2 54681  87.9185 269.7148 0001426  78.4716 281.6578 13.21825802154499
ONEWEB-0532             
1 55140U 23004A   26039.01778850  .00000007  00000+0 -15112-4 0  9991
2 55140  87.9109  31.5222 0002250  85.3081 274.8308 13.17647571150572
